GLOBALSTAR M075         
1 37192U 10054E   25144.74587830 -.00000088  00000+0  88613-4 0  9996
2 37192  51.9946 252.9106 0000563 123.0634  31.9156 12.62265096672881
GLOBALSTAR M073         
1 37193U 10054F   25144.58721583 -.00000073  00000+0  17016-3 0  9996
2 37193  52.0033 167.1951 0000088 270.9761 241.9539 12.62271813674852
GLOBALSTAR M083         
1 37739U 11033A   25144.89054352 -.00000118  00000+0 -78152-4 0  9997
2 37739  51.9846 115.0330 0000217  73.3041 318.6176 12.62263545643916
GLOBALSTAR M088         
1 37740U 11033B   25144.93896215 -.00000078  00000+0  14130-3 0  9995
2 37740  52.0067  20.4049 0000863  76.3438 296.7150 12.62245196639466
GLOBALSTAR M091         
1 37741U 11033C   25144.72909569 -.00000091  00000+0  69874-4 0  9991
2 37741  52.0013 344.5499 0000960 109.7361 328.7250 12.62268014640228
GLOBALSTAR M085         
1 37742U 11033D   25144.89267149 -.00000103  00000+0  49747-5 0  9993
2 37742  51.9873 295.1103 0000884 126.2423  36.2595 12.62268529640754
GLOBALSTAR M081         
1 37743U 11033E   25144.83668648 -.00000100  00000+0  23677-4 0  9997
2 37743  51.9967 298.0549 0000698 128.8266  18.2120 12.62264062640898
GLOBALSTAR M089         
1 37744U 11033F   25144.71948405 -.00000100  00000+0  20759-4 0  9995
2 37744  51.9928 252.6424 0000369 103.7383  51.8694 12.62263732641726
